{
  "type": "FeatureCollection",
  "features": [
    {
      "type": "Feature",
      "properties": {
        "norad_id": 41890,
        "name": "CYGFM07",
        "group": "weather",
        "lat": -6.700363909032657,
        "lon": -71.32833755071267,
        "alt_km": 409.1080498653246,
        "timestamp": "2025-12-25T09:48:51.930895+00:00",
        "meta_object_name": "CYGFM07",
        "meta_object_id": "2016-078G",
        "meta_epoch": "2025-12-25T02:08:18.875040",
        "meta_mean_motion": 15.50522977,
        "meta_eccentricity": 0.0009394,
        "meta_inclination": 34.9478,
        "meta_ra_of_asc_node": 300.4548,
        "meta_arg_of_pericenter": 319.9198,
        "meta_mean_anomaly": 40.083,
        "meta_ephemeris_type": 0,
        "meta_classification_type": "U",
        "meta_norad_cat_id": 41890,
        "meta_element_set_no": 999,
        "meta_rev_at_epoch": 50187,
        "meta_bstar": 0.00040404,
        "meta_mean_motion_dot": 0.00023861,
        "meta_mean_motion_ddot": 0,
        "tle_line1": "1 41890U 16078G   25359.08910735  .00023861  00000+0  40404-3 0  9995",
        "tle_line2": "2 41890  34.9478 300.4548 0009394 319.9198  40.0830 15.50522977501877"
      },
      "geometry": {
        "type": "Point",
        "coordinates": [
          -71.32833755071267,
          -6.700363909032657
        ]
      }
    },
    {
      "type": "Feature",
      "properties": {
        "norad_id": 41891,
        "name": "CYGFM03",
        "group": "weather",
        "lat": 0.9927727367021439,
        "lon": 118.86110183265588,
        "alt_km": 418.398665655689,
        "timestamp": "2025-12-25T09:48:51.930907+00:00",
        "meta_object_name": "CYGFM03",
        "meta_object_id": "2016-078H",
        "meta_epoch": "2025-12-25T01:19:20.475840",
        "meta_mean_motion": 15.504147,
        "meta_eccentricity": 0.0009227,
        "meta_inclination": 34.9431,
        "meta_ra_of_asc_node": 302.6047,
        "meta_arg_of_pericenter": 306.7099,
        "meta_mean_anomaly": 53.2776,
        "meta_ephemeris_type": 0,
        "meta_classification_type": "U",
        "meta_norad_cat_id": 41891,
        "meta_element_set_no": 999,
        "meta_rev_at_epoch": 50184,
        "meta_bstar": 0.00039736,
        "meta_mean_motion_dot": 0.00023373,
        "meta_mean_motion_ddot": 0,
        "tle_line1": "1 41891U 16078H   25359.05509810  .00023373  00000+0  39736-3 0  9995",
        "tle_line2": "2 41891  34.9431 302.6047 0009227 306.7099  53.2776 15.50414700501840"
      },
      "geometry": {
        "type": "Point",
        "coordinates": [
          118.86110183265588,
          0.9927727367021439
        ]
      }
    },
    {
      "type": "Feature",
      "properties": {
        "norad_id": 43010,
        "name": "FENGYUN 3D",
        "group": "weather",
        "lat": -75.04500020177588,
        "lon": 2.2627874106278445,
        "alt_km": 834.4889652343945,
        "timestamp": "2025-12-25T09:48:51.930917+00:00",
        "meta_object_name": "FENGYUN 3D",
        "meta_object_id": "2017-072A",
        "meta_epoch": "2025-12-25T05:06:25.500096",
        "meta_mean_motion": 14.19687267,
        "meta_eccentricity": 0.0001525,
        "meta_inclination": 98.9914,
        "meta_ra_of_asc_node": 325.7104,
        "meta_arg_of_pericenter": 146.5453,
        "meta_mean_anomaly": 213.5819,
        "meta_ephemeris_type": 0,
        "meta_classification_type": "U",
        "meta_norad_cat_id": 43010,
        "meta_element_set_no": 999,
        "meta_rev_at_epoch": 42030,
        "meta_bstar": 5.0555e-05,
        "meta_mean_motion_dot": 6.1e-07,
        "meta_mean_motion_ddot": 0,
        "tle_line1": "1 43010U 17072A   25359.21279514  .00000061  00000+0  50555-4 0  9990",
        "tle_line2": "2 43010  98.9914 325.7104 0001525 146.5453 213.5819 14.19687267420302"
      },
      "geometry": {
        "type": "Point",
        "coordinates": [
          2.2627874106278445,
          -75.04500020177588
        ]
      }
    },
    {
      "type": "Feature",
      "properties": {
        "norad_id": 43013,
        "name": "NOAA 20 (JPSS-1)",
        "group": "weather",
        "lat": 65.31564416656708,
        "lon": -84.0371332712147,
        "alt_km": 819.0473334373946,
        "timestamp": "2025-12-25T09:48:51.930929+00:00",
        "meta_object_name": "NOAA 20 (JPSS-1)",
        "meta_object_id": "2017-073A",
        "meta_epoch": "2025-12-25T01:02:33.235872",
        "meta_mean_motion": 14.19528938,
        "meta_eccentricity": 0.0002074,
        "meta_inclination": 98.7615,
        "meta_ra_of_asc_node": 295.2065,
        "meta_arg_of_pericenter": 69.6621,
        "meta_mean_anomaly": 290.4778,
        "meta_ephemeris_type": 0,
        "meta_classification_type": "U",
        "meta_norad_cat_id": 43013,
        "meta_element_set_no": 999,
        "meta_rev_at_epoch": 41976,
        "meta_bstar": 6.5293e-05,
        "meta_mean_motion_dot": 9.4e-07,
        "meta_mean_motion_ddot": 0,
        "tle_line1": "1 43013U 17073A   25359.04344023  .00000094  00000+0  65293-4 0  9994",
        "tle_line2": "2 43013  98.7615 295.2065 0002074  69.6621 290.4778 14.19528938419765"
      },
      "geometry": {
        "type": "Point",
        "coordinates": [
          -84.0371332712147,
          65.31564416656708
        ]
      }
    },
    {
      "type": "Feature",
      "properties": {
        "norad_id": 43226,
        "name": "GOES 17",
        "group": "weather",
        "lat": 0.4475694340925589,
        "lon": 151.8515841563995,
        "alt_km": 35794.05134497666,
        "timestamp": "2025-12-25T09:48:51.930949+00:00",
        "meta_object_name": "GOES 17",
        "meta_object_id": "2018-022A",
        "meta_epoch": "2025-12-24T22:56:44.493792",
        "meta_mean_motion": 1.00272054,
        "meta_eccentricity": 0.0003091,
        "meta_inclination": 0.4873,
        "meta_ra_of_asc_node": 89.0534,
        "meta_arg_of_pericenter": 190.9391,
        "meta_mean_anomaly": 68.4163,
        "meta_ephemeris_type": 0,
        "meta_classification_type": "U",
        "meta_norad_cat_id": 43226,
        "meta_element_set_no": 999,
        "meta_rev_at_epoch": 2867,
        "meta_bstar": 0,
        "meta_mean_motion_dot": -1.62e-06,
        "meta_mean_motion_ddot": 0,
        "tle_line1": "1 43226U 18022A   25358.95607053 -.00000162  00000+0  00000+0 0  9996",
        "tle_line2": "2 43226   0.4873  89.0534 0003091 190.9391  68.4163  1.00272054 28677"
      },
      "geometry": {
        "type": "Point",
        "coordinates": [
          151.8515841563995,
          0.4475694340925589
        ]
      }
    },
    {
      "type": "Feature",
      "properties": {
        "norad_id": 43491,
        "name": "FENGYUN 2H",
        "group": "weather",
        "lat": -2.2422503036922414,
        "lon": -39.28099946393541,
        "alt_km": 35783.75326344153,
        "timestamp": "2025-12-25T09:48:51.930963+00:00",
        "meta_object_name": "FENGYUN 2H",
        "meta_object_id": "2018-050A",
        "meta_epoch": "2025-12-24T23:44:54.879648",
        "meta_mean_motion": 1.00270521,
        "meta_eccentricity": 0.0002408,
        "meta_inclination": 2.5805,
        "meta_ra_of_asc_node": 81.201,
        "meta_arg_of_pericenter": 166.3972,
        "meta_mean_anomaly": 281.7244,
        "meta_ephemeris_type": 0,
        "meta_classification_type": "U",
        "meta_norad_cat_id": 43491,
        "meta_element_set_no": 999,
        "meta_rev_at_epoch": 2769,
        "meta_bstar": 0,
        "meta_mean_motion_dot": -1.09e-06,
        "meta_mean_motion_ddot": 0,
        "tle_line1": "1 43491U 18050A   25358.98952407 -.00000109  00000+0  00000+0 0  9991",
        "tle_line2": "2 43491   2.5805  81.2010 0002408 166.3972 281.7244  1.00270521 27693"
      },
      "geometry": {
        "type": "Point",
        "coordinates": [
          -39.28099946393541,
          -2.2422503036922414
        ]
      }
    },
    {
      "type": "Feature",
      "properties": {
        "norad_id": 43689,
        "name": "METOP-C",
        "group": "weather",
        "lat": -61.73831696597195,
        "lon": 73.5144679880498,
        "alt_km": 827.3679511888831,
        "timestamp": "2025-12-25T09:48:51.930974+00:00",
        "meta_object_name": "METOP-C",
        "meta_object_id": "2018-087A",
        "meta_epoch": "2025-12-25T03:21:10.924128",
        "meta_mean_motion": 14.21489011,
        "meta_eccentricity": 6.33e-05,
        "meta_inclination": 98.6912,
        "meta_ra_of_asc_node": 56.7183,
        "meta_arg_of_pericenter": 16.0492,
        "meta_mean_anomaly": 344.0705,
        "meta_ephemeris_type": 0,
        "meta_classification_type": "U",
        "meta_norad_cat_id": 43689,
        "meta_element_set_no": 999,
        "meta_rev_at_epoch": 37010,
        "meta_bstar": 7.9971e-05,
        "meta_mean_motion_dot": 1.31e-06,
        "meta_mean_motion_ddot": 0,
        "tle_line1": "1 43689U 18087A   25359.13970977  .00000131  00000+0  79971-4 0  9992",
        "tle_line2": "2 43689  98.6912  56.7183 0000633  16.0492 344.0705 14.21489011370106"
      },
      "geometry": {
        "type": "Point",
        "coordinates": [
          73.5144679880498,
          -61.73831696597195
        ]
      }
    }
  ]
}